{
  "type": "FeatureCollection",
  "features": [
    {
      "type": "Feature",
      "properties": {
        "norad_id": 30368,
        "name": "FENGYUN 1C DEB",
        "group": "fengyun-1c-debris",
        "lat": 80.76040035888225,
        "lon": 10.541298812090458,
        "alt_km": 1110.0419010646146,
        "timestamp": "2025-12-26T21:25:53.286249+00:00",
        "meta_object_name": "FENGYUN 1C DEB",
        "meta_object_id": "1999-025ACF",
        "meta_epoch": "2025-12-26T14:03:30.831264",
        "meta_mean_motion": 13.75380035,
        "meta_eccentricity": 0.01864004,
        "meta_inclination": 99.1881,
        "meta_ra_of_asc_node": 106.0134,
        "meta_arg_of_pericenter": 271.3589,
        "meta_mean_anomaly": 99.3063,
        "meta_ephemeris_type": 0,
        "meta_classification_type": "U",
        "meta_norad_cat_id": 30368,
        "meta_element_set_no": 999,
        "meta_rev_at_epoch": 94852,
        "meta_bstar": 0.00053904036,
        "meta_mean_motion_dot": 5.44e-06,
        "meta_mean_motion_ddot": 0,
        "tle_line1": "1 30368U 99025ACF 25360.58577351  .00000544  00000+0  53904-3 0  9998",
        "tle_line2": "2 30368  99.1881 106.0134 0186400 271.3589  99.3063 13.75380035948520"
      },
      "geometry": {
        "type": "Point",
        "coordinates": [
          10.541298812090458,
          80.76040035888225
        ]
      }
    },
    {
      "type": "Feature",
      "properties": {
        "norad_id": 30369,
        "name": "FENGYUN 1C DEB",
        "group": "fengyun-1c-debris",
        "lat": 32.27154572245106,
        "lon": -7.699877537242082,
        "alt_km": 888.5712904787879,
        "timestamp": "2025-12-26T21:25:53.286259+00:00",
        "meta_object_name": "FENGYUN 1C DEB",
        "meta_object_id": "1999-025ACG",
        "meta_epoch": "2025-12-26T11:47:06.233568",
        "meta_mean_motion": 14.12067178,
        "meta_eccentricity": 0.00997976,
        "meta_inclination": 98.7219,
        "meta_ra_of_asc_node": 357.472,
        "meta_arg_of_pericenter": 156.3942,
        "meta_mean_anomaly": 355.3007,
        "meta_ephemeris_type": 0,
        "meta_classification_type": "U",
        "meta_norad_cat_id": 30369,
        "meta_element_set_no": 999,
        "meta_rev_at_epoch": 97440,
        "meta_bstar": 0.00016294964,
        "meta_mean_motion_dot": 2.71e-06,
        "meta_mean_motion_ddot": 0,
        "tle_line1": "1 30369U 99025ACG 25360.49104437  .00000271  00000+0  16295-3 0  9999",
        "tle_line2": "2 30369  98.7219 357.4720 0099797 156.3942 355.3007 14.12067178974402"
      },
      "geometry": {
        "type": "Point",
        "coordinates": [
          -7.699877537242082,
          32.27154572245106
        ]
      }
    },
    {
      "type": "Feature",
      "properties": {
        "norad_id": 30370,
        "name": "FENGYUN 1C DEB",
        "group": "fengyun-1c-debris",
        "lat": -37.332344819131855,
        "lon": 64.13819350958421,
        "alt_km": 783.6224338676211,
        "timestamp": "2025-12-26T21:25:53.286270+00:00",
        "meta_object_name": "FENGYUN 1C DEB",
        "meta_object_id": "1999-025ACH",
        "meta_epoch": "2025-12-26T03:15:30.924576",
        "meta_mean_motion": 14.19218493,
        "meta_eccentricity": 0.00997349,
        "meta_inclination": 99.0553,
        "meta_ra_of_asc_node": 56.3784,
        "meta_arg_of_pericenter": 278.7942,
        "meta_mean_anomaly": 136.0642,
        "meta_ephemeris_type": 0,
        "meta_classification_type": "U",
        "meta_norad_cat_id": 30370,
        "meta_element_set_no": 999,
        "meta_rev_at_epoch": 97284,
        "meta_bstar": 0.0011911662,
        "meta_mean_motion_dot": 2.576e-05,
        "meta_mean_motion_ddot": 0,
        "tle_line1": "1 30370U 99025ACH 25360.13577459  .00002576  00000+0  11912-2 0  9990",
        "tle_line2": "2 30370  99.0553  56.3784 0099734 278.7942 136.0642 14.19218493972844"
      },
      "geometry": {
        "type": "Point",
        "coordinates": [
          64.13819350958421,
          -37.332344819131855
        ]
      }
    },
    {
      "type": "Feature",
      "properties": {
        "norad_id": 30371,
        "name": "FENGYUN 1C DEB",
        "group": "fengyun-1c-debris",
        "lat": -2.0562559901219064,
        "lon": -136.62075871713495,
        "alt_km": 795.3849770277311,
        "timestamp": "2025-12-26T21:25:53.286280+00:00",
        "meta_object_name": "FENGYUN 1C DEB",
        "meta_object_id": "1999-025ACJ",
        "meta_epoch": "2025-12-26T02:22:00.824160",
        "meta_mean_motion": 14.30299082,
        "meta_eccentricity": 0.00068986,
        "meta_inclination": 98.5747,
        "meta_ra_of_asc_node": 42.9069,
        "meta_arg_of_pericenter": 291.6194,
        "meta_mean_anomaly": 122.5413,
        "meta_ephemeris_type": 0,
        "meta_classification_type": "U",
        "meta_norad_cat_id": 30371,
        "meta_element_set_no": 999,
        "meta_rev_at_epoch": 98094,
        "meta_bstar": 0.00097596966,
        "meta_mean_motion_dot": 2.49e-05,
        "meta_mean_motion_ddot": 0,
        "tle_line1": "1 30371U 99025ACJ 25360.09862065  .00002490  00000+0  97597-3 0  9995",
        "tle_line2": "2 30371  98.5747  42.9069 0006898 291.6194 122.5413 14.30299082980945"
      },
      "geometry": {
        "type": "Point",
        "coordinates": [
          -136.62075871713495,
          -2.0562559901219064
        ]
      }
    },
    {
      "type": "Feature",
      "properties": {
        "norad_id": 30374,
        "name": "FENGYUN 1C DEB",
        "group": "fengyun-1c-debris",
        "lat": 50.30816372325779,
        "lon": -145.22345165334173,
        "alt_km": 675.4873142854949,
        "timestamp": "2025-12-26T21:25:53.286291+00:00",
        "meta_object_name": "FENGYUN 1C DEB",
        "meta_object_id": "1999-025ACM",
        "meta_epoch": "2025-12-26T08:18:49.487040",
        "meta_mean_motion": 14.61473844,
        "meta_eccentricity": 0.00398133,
        "meta_inclination": 99.2722,
        "meta_ra_of_asc_node": 225.5163,
        "meta_arg_of_pericenter": 126.1066,
        "meta_mean_anomaly": 291.5965,
        "meta_ephemeris_type": 0,
        "meta_classification_type": "U",
        "meta_norad_cat_id": 30374,
        "meta_element_set_no": 999,
        "meta_rev_at_epoch": 99121,
        "meta_bstar": 0.0015441698,
        "meta_mean_motion_dot": 7.688e-05,
        "meta_mean_motion_ddot": 0,
        "tle_line1": "1 30374U 99025ACM 25360.34640610  .00007688  00000+0  15442-2 0  9998",
        "tle_line2": "2 30374  99.2722 225.5163 0039813 126.1066 291.5965 14.61473844991211"
      },
      "geometry": {
        "type": "Point",
        "coordinates": [
          -145.22345165334173,
          50.30816372325779
        ]
      }
    },
    {
      "type": "Feature",
      "properties": {
        "norad_id": 30377,
        "name": "FENGYUN 1C DEB",
        "group": "fengyun-1c-debris",
        "lat": -72.3007312171633,
        "lon": 49.354533626796474,
        "alt_km": 857.8281436913367,
        "timestamp": "2025-12-26T21:25:53.286301+00:00",
        "meta_object_name": "FENGYUN 1C DEB",
        "meta_object_id": "1999-025ACQ",
        "meta_epoch": "2025-12-26T01:31:30.668160",
        "meta_mean_motion": 13.99186408,
        "meta_eccentricity": 0.01178867,
        "meta_inclination": 98.8928,
        "meta_ra_of_asc_node": 19.169,
        "meta_arg_of_pericenter": 229.5897,
        "meta_mean_anomaly": 199.0692,
        "meta_ephemeris_type": 0,
        "meta_classification_type": "U",
        "meta_norad_cat_id": 30377,
        "meta_element_set_no": 999,
        "meta_rev_at_epoch": 96393,
        "meta_bstar": 0.0004794695,
        "meta_mean_motion_dot": 6.94e-06,
        "meta_mean_motion_ddot": 0,
        "tle_line1": "1 30377U 99025ACQ 25360.06354940  .00000694  00000+0  47947-3 0  9994",
        "tle_line2": "2 30377  98.8928  19.1690 0117886 229.5897 199.0692 13.99186408963930"
      },
      "geometry": {
        "type": "Point",
        "coordinates": [
          49.354533626796474,
          -72.3007312171633
        ]
      }
    },
    {
      "type": "Feature",
      "properties": {
        "norad_id": 30379,
        "name": "FENGYUN 1C DEB",
        "group": "fengyun-1c-debris",
        "lat": 46.54065517174158,
        "lon": -155.4250765481146,
        "alt_km": 868.8074863601933,
        "timestamp": "2025-12-26T21:25:53.286311+00:00",
        "meta_object_name": "FENGYUN 1C DEB",
        "meta_object_id": "1999-025ACS",
        "meta_epoch": "2025-12-26T14:35:38.282208",
        "meta_mean_motion": 14.08048757,
        "meta_eccentricity": 0.00356817,
        "meta_inclination": 98.7577,
        "meta_ra_of_asc_node": 14.9366,
        "meta_arg_of_pericenter": 239.1101,
        "meta_mean_anomaly": 250.624,
        "meta_ephemeris_type": 0,
        "meta_classification_type": "U",
        "meta_norad_cat_id": 30379,
        "meta_element_set_no": 999,
        "meta_rev_at_epoch": 97012,
        "meta_bstar": 0.00021215743,
        "meta_mean_motion_dot": 3.2e-06,
        "meta_mean_motion_ddot": 0,
        "tle_line1": "1 30379U 99025ACS 25360.60808197  .00000320  00000+0  21216-3 0  9991",
        "tle_line2": "2 30379  98.7577  14.9366 0035681 239.1101 250.6240 14.08048757970128"
      },
      "geometry": {
        "type": "Point",
        "coordinates": [
          -155.4250765481146,
          46.54065517174158
        ]
      }
    }
  ]
}